{
    "links": {
        "self": "http://www.neowsapp.com/rest/v1/neo/3831209?api_key=iIulBulltgU6a56xZRHN4H3l9WmuAYTsLGpBGhQ2"
    },
    "id": "3831209",
    "neo_reference_id": "3831209",
    "name": "(2018 TV1)",
    "designation": "2018 TV1",
    "nasa_jpl_url": "http://ssd.jpl.nasa.gov/sbdb.cgi?sstr=3831209",
    "absolute_magnitude_h": 24.7,
    "estimated_diameter": {
        "kilometers": {
            "estimated_diameter_min": 0.0305179233,
            "estimated_diameter_max": 0.0682401509
        },
        "meters": {
            "estimated_diameter_min": 30.5179232594,
            "estimated_diameter_max": 68.2401509401
        },
        "miles": {
            "estimated_diameter_min": 0.0189629525,
            "estimated_diameter_max": 0.0424024508
        },
        "feet": {
            "estimated_diameter_min": 100.1244233463,
            "estimated_diameter_max": 223.8850168104
        }
    },
    "is_potentially_hazardous_asteroid": false,
    "close_approach_data": [
        {
            "close_approach_date": "2016-08-21",
            "close_approach_date_full": "2016-Aug-21 20:27",
            "epoch_date_close_approach": 1471811220000,
            "relative_velocity": {
                "kilometers_per_second": "3.3378390069",
                "kilometers_per_hour": "12016.2204249936",
                "miles_per_hour": "7466.4120746301"
            },
            "miss_distance": {
                "astronomical": "1.8927729131",
                "lunar": "736.2886631959",
                "kilometers": "283154796.193455097",
                "miles": "175944231.7121784586"
            },
            "orbiting_body": "Juptr"
        },
        {
            "close_approach_date": "2018-10-06",
            "close_approach_date_full": "2018-Oct-06 21:07",
            "epoch_date_close_approach": 1538860020000,
            "relative_velocity": {
                "kilometers_per_second": "8.1473164066",
                "kilometers_per_hour": "29330.3390636025",
                "miles_per_hour": "18224.7320698257"
            },
            "miss_distance": {
                "astronomical": "0.0633844037",
                "lunar": "24.6565330393",
                "kilometers": "9482171.784740119",
                "miles": "5891948.3337628822"
            },
            "orbiting_body": "Earth"
        }
    ],
    "orbital_data": {
        "orbit_id": "2",
        "orbit_determination_date": "2018-10-10 06:26:00",
        "first_observation_date": "2018-10-05",
        "last_observation_date": "2018-10-10",
        "data_arc_in_days": 5,
        "observations_used": 46,
        "orbit_uncertainty": "8",
        "minimum_orbit_intersection": ".0624411",
        "jupiter_tisserand_invariant": "3.209",
        "epoch_osculation": "2458397.5",
        "eccentricity": ".5753597776860014",
        "semi_major_axis": "2.488798912073858",
        "inclination": "8.59376800591626",
        "ascending_node_longitude": "5.79472516505905",
        "orbital_period": "1434.112229360059",
        "perihelion_distance": "1.056844123317881",
        "perihelion_argument": "13.82967930928877",
        "aphelion_distance": "3.920753700829836",
        "perihelion_time": "2458404.290257654516",
        "mean_anomaly": "358.295466208585",
        "mean_motion": ".2510263789889318",
        "equinox": "J2000",
        "orbit_class": {
            "orbit_class_type": "AMO",
            "orbit_class_description": "Near-Earth asteroid orbits similar to that of 1221 Amor",
            "orbit_class_range": "1.017 AU < q (perihelion) < 1.3 AU"
        }
    },
    "is_sentry_object": false
}